H1 CPF 01  gfz 2021 04 11 12  6012 terrasarx 
H2 0702601  6201 31698    2021 04 11 12 59 42 2021 04 16 00 00 42   120 1 1  0 0 0
H9
10 0 59319  32382.000000  0    2907005.286  -1767727.635   5979479.284
10 0 59319  32502.000000  0    3389742.452  -2383075.725   5493078.310
10 0 59319  32622.000000  0    3802802.653  -2964638.709   4910053.128
10 0 59319  32742.000000  0    4139637.583  -3500961.942   4240626.451
10 0 59319  32862.000000  0    4395223.164  -3981275.244   3496552.861
10 0 59319  32982.000000  0    4566138.819  -4395713.831   2690914.649
10 0 59319  33102.000000  0    4650615.383  -4735525.262   1837890.624
10 0 59319  33222.000000  0    4648549.014  -4993256.718    952502.322
10 0 59319  33342.000000  0    4561480.701  -5162918.844     50343.046
10 0 59319  33462.000000  0    4392542.143  -5240120.822   -852704.329
10 0 59319  33582.000000  0    4146370.702  -5222174.464  -1740755.949
10 0 59319  33702.000000  0    3828992.606  -5108162.977  -2598214.956
10 0 59319  33822.000000  0    3447679.829  -4898973.752  -3410051.599
10 0 59319  33942.000000  0    3010783.796  -4597294.377  -4162069.847
10 0 59319  34062.000000  0    2527550.877  -4207573.865  -4841155.479
10 0 59319  34182.000000  0    2007924.059  -3735948.309  -5435500.530
10 0 59319  34302.000000  0    1462337.179  -3190135.520  -5934799.193
10 0 59319  34422.000000  0     901505.822  -2579302.995  -6330416.243
10 0 59319  34542.000000  0     336217.864  -1913909.625  -6615526.188
10 0 59319  34662.000000  0    -222871.428  -1205523.963  -6785220.225
10 0 59319  34782.000000  0    -765435.352   -466623.616  -6836581.229
10 0 59319  34902.000000  0   -1281661.351    289620.793  -6768727.912
10 0 59319  35022.000000  0   -1762424.525   1049574.433  -6582827.588
10 0 59319  35142.000000  0   -2199445.048   1799377.940  -6282078.207
10 0 59319  35262.000000  0   -2585428.196   2525193.803  -5871659.584
10 0 59319  35382.000000  0   -2914186.261   3213457.819  -5358654.344
10 0 59319  35502.000000  0   -3180739.454   3851131.550  -4751937.373
10 0 59319  35622.000000  0   -3381395.084   4425951.657  -4062033.459
10 0 59319  35742.000000  0   -3513801.146   4926670.059  -3300943.264
10 0 59319  35862.000000  0   -3576972.965   5343279.074  -2481942.013
10 0 59319  35982.000000  0   -3571294.396   5667218.945  -1619353.654
10 0 59319  36102.000000  0   -3498491.259   5891562.566   -728301.068
10 0 59319  36222.000000  0   -3361576.230   6011169.559    175562.881
10 0 59319  36342.000000  0   -3164769.105   6022806.671   1076335.796
10 0 59319  36462.000000  0   -2913390.816   5925231.427   1958155.964
10 0 59319  36582.000000  0   -2613732.837   5719233.607   2805492.261
10 0 59319  36702.000000  0   -2272908.192   5407634.228   3603425.522
10 0 59319  36822.000000  0   -1898688.331   4995244.543   4337916.414
10 0 59319  36942.000000  0   -1499329.440   4488785.781   4996055.438
10 0 59319  37062.000000  0   -1083391.582   3896771.991   5566290.527
10 0 59319  37182.000000  0    -659556.164   3229358.041   6038626.875
10 0 59319  37302.000000  0    -236446.166   2498157.387   6404797.177
10 0 59319  37422.000000  0     177547.755   1716034.442   6658399.782
10 0 59319  37542.000000  0     574432.376    896874.773   6795005.355
10 0 59319  37662.000000  0     946765.092     55336.700   6812228.473
10 0 59319  37782.000000  0    1287792.288   -793409.759   6709766.874
10 0 59319  37902.000000  0    1591571.395  -1633955.981   6489407.303
10 0 59319  38022.000000  0    1853074.737  -2450933.746   6154996.624
10 0 59319  38142.000000  0    2068273.436  -3229297.188   5712379.434
10 0 59319  38262.000000  0    2234200.181  -3954602.517   5169301.142
10 0 59319  38382.000000  0    2348989.217  -4613279.547   4535277.701
10 0 59319  38502.000000  0    2411894.248  -5192891.391   3821434.766
10 0 59319  38622.000000  0    2423283.391  -5682377.722   3040315.442
10 0 59319  38742.000000  0    2384608.723  -6072274.825   2205660.244
10 0 59319  38862.000000  0    2298353.151  -6354906.033   1332162.399
10 0 59319  38982.000000  0    2167955.931  -6524538.284    435205.081
10 0 59319  39102.000000  0    1997717.624  -6577503.684   -469415.795
10 0 59319  39222.000000  0    1792687.227  -6512279.885  -1365780.078
10 0 59319  39342.000000  0    1558531.785  -6329524.267  -2238133.375
10 0 59319  39462.000000  0    1301394.828  -6032065.738  -3071171.102
10 0 59319  39582.000000  0    1027747.515  -5624850.063  -3850312.062
10 0 59319  39702.000000  0     744236.993  -5114846.036  -4561953.733
10 0 59319  39822.000000  0     457533.757  -4510913.830  -5193706.744
10 0 59319  39942.000000  0     174182.771  -3823639.717  -5734603.823
10 0 59319  40062.000000  0     -99538.589  -3065140.734  -6175281.058
10 0 59319  40182.000000  0    -357752.775  -2248844.416  -6508128.748
10 0 59319  40302.000000  0    -595102.227  -1389248.256  -6727411.324
10 0 59319  40422.000000  0    -806855.400   -501663.552  -6829356.402
10 0 59319  40542.000000  0    -988996.945    398053.774  -6812212.683
10 0 59319  40662.000000  0   -1138301.341   1293779.686  -6676275.514
10 0 59319  40782.000000  0   -1252388.739   2169403.570  -6423882.269
10 0 59319  40902.000000  0   -1329762.126   3009110.604  -6059376.906
10 0 59319  41022.000000  0   -1369826.016   3797663.634  -5589044.544
10 0 59319  41142.000000  0   -1372885.679   4520678.492  -5021013.266
10 0 59319  41262.000000  0   -1340127.230   5164889.409  -4365125.558
10 0 59319  41382.000000  0   -1273578.706   5718399.211  -3632777.695
10 0 59319  41502.000000  0   -1176052.038   6170907.687  -2836729.620
10 0 59319  41622.000000  0   -1051067.251   6513914.149  -1990888.900
10 0 59319  41742.000000  0    -902760.216   6740889.668  -1110069.577
10 0 59319  41862.000000  0    -735776.190   6847412.185   -209731.437
10 0 59319  41982.000000  0    -555150.799   6831263.173    694295.837
10 0 59319  42102.000000  0    -366181.948   6692480.588   1586099.882
10 0 59319  42222.000000  0    -174296.143   6433363.669   2449976.378
10 0 59319  42342.000000  0      15086.966   6058431.308   3270713.292
10 0 59319  42462.000000  0     196688.784   5574338.047   4033864.213
10 0 59319  42582.000000  0     365501.478   4989751.021   4726008.367
10 0 59319  42702.000000  0     516910.220   4315181.046   5334991.602
10 0 59319  42822.000000  0     646804.532   3562782.331   5850133.778
10 0 59319  42942.000000  0     751677.062   2746126.669   6262413.168
10 0 59319  43062.000000  0     828706.052   1879950.977   6564618.954
10 0 59319  43182.000000  0     875821.398    979886.755   6751471.372
10 0 59319  43302.000000  0     891752.941     62175.503   6819707.778
10 0 59319  43422.000000  0     876060.138   -856623.138   6768136.050
10 0 59319  43542.000000  0     829142.387  -1759929.894   6597655.379
10 0 59319  43662.000000  0     752229.896  -2631444.733   6311241.888
10 0 59319  43782.000000  0     647355.227  -3455442.530   5913900.218
10 0 59319  43902.000000  0     517305.636  -4217058.492   5412578.667
10 0 59319  44022.000000  0     365558.739  -4902558.322   4816053.677
10 0 59319  44142.000000  0     196201.745  -5499592.092   4134783.866
10 0 59319  44262.000000  0      13834.452  -5997427.222   3380731.499
10 0 59319  44382.000000  0    -176541.627  -6387151.990   2567154.041
10 0 59319  44502.000000  0    -369644.945  -6661844.834   1708369.328
10 0 59319  44622.000000  0    -560043.756  -6816705.694    819500.859
10 0 59319  44742.000000  0    -742291.193  -6849148.221    -83795.901
10 0 59319  44862.000000  0    -911061.871  -6758844.653   -985619.376
10 0 59319  44982.000000  0   -1061285.559  -6547724.291  -1870110.861
10 0 59319  45102.000000  0   -1188275.245  -6219927.489  -2721740.553
10 0 59319  45222.000000  0   -1287846.841  -5781716.631  -3525586.031
10 0 59319  45342.000000  0   -1356427.233  -5241345.293  -4267596.996
10 0 59319  45462.000000  0   -1391147.705  -4608889.739  -4934839.535
10 0 59319  45582.000000  0   -1389921.098  -3896049.355  -5515715.809
10 0 59319  45702.000000  0   -1351501.230  -3115920.972  -6000157.355
10 0 59319  45822.000000  0   -1275523.445  -2282751.560  -6379789.696
10 0 59319  45942.000000  0   -1162525.920  -1411674.314  -6648065.593
10 0 59319  46062.000000  0   -1013951.943   -518434.561  -6800366.767
10 0 59319  46182.000000  0    -832133.191    380891.053  -6834074.801
10 0 59319  46302.000000  0    -620253.168   1270177.267  -6748610.316
10 0 59319  46422.000000  0    -382292.709   2133531.677  -6545441.688
10 0 59319  46542.000000  0    -122958.419   2955571.489  -6228063.237
10 0 59319  46662.000000  0     152406.749   3721693.827  -5801943.210
10 0 59319  46782.000000  0     437929.213   4418334.114  -5274438.445
10 0 59319  46902.000000  0     727323.889   5033207.820  -4654678.694
10 0 59319  47022.000000  0    1014025.910   5555533.863  -3953420.110
10 0 59319  47142.000000  0    1291332.571   5976233.006  -3182867.708
10 0 59319  47262.000000  0    1552552.203   6288096.936  -2356470.097
10 0 59319  47382.000000  0    1791157.044   6485924.549  -1488688.297
10 0 59319  47502.000000  0    2000936.635   6566620.600   -594741.772
10 0 59319  47622.000000  0    2176147.426   6529252.619    309663.269
10 0 59319  47742.000000  0    2311654.331   6375064.534   1208616.532
10 0 59319  47862.000000  0    2403061.149   6107446.940   2086291.279
10 0 59319  47982.000000  0    2446826.181   5731864.406   2927231.058
10 0 59319  48102.000000  0    2440360.638   5255742.007   3716629.474
10 0 59319  48222.000000  0    2382106.658   4688313.443   4440597.572
10 0 59319  48342.000000  0    2271592.499   4040433.237   5086413.616
10 0 59319  48462.000000  0    2109463.076   3324357.331   5642745.111
10 0 59319  48582.000000  0    1897488.596   2553504.438   6099842.939
10 0 59319  48702.000000  0    1638549.615   1742198.986   6449708.250
10 0 59319  48822.000000  0    1336598.046    905399.518   6686226.849
99
